H1 CPF 01  gfz 2021 07 12 12  6932 terrasarx 
H2 0702601  6201 31698    2021 07 12 12 59 42 2021 07 17 00 00 42   120 1 1  0 0 0
H9
10 0 59409  72702.000000  0    1472360.642    104751.302  -6735300.490
10 0 59409  72822.000000  0    2199222.928   -414273.777  -6521805.108
10 0 59409  72942.000000  0    2878855.375   -938428.113  -6194511.019
10 0 59409  73062.000000  0    3499447.994  -1457690.467  -5759058.461
10 0 59409  73182.000000  0    4050364.757  -1961910.586  -5222966.670
10 0 59409  73302.000000  0    4522329.682  -2441005.309  -4595515.911
10 0 59409  73422.000000  0    4907588.593  -2885159.146  -3887597.240
10 0 59409  73542.000000  0    5200043.959  -3285024.891  -3111533.236
10 0 59409  73662.000000  0    5395360.945  -3631920.724  -2280870.585
10 0 59409  73782.000000  0    5491040.143  -3918018.997  -1410146.401
10 0 59409  73902.000000  0    5486454.594  -4136522.273   -514633.523
10 0 59409  74022.000000  0    5382850.033  -4281821.921    389931.417
10 0 59409  74142.000000  0    5183307.259  -4349635.217   1287631.855
10 0 59409  74262.000000  0    4892665.941  -4337115.999   2162660.524
10 0 59409  74382.000000  0    4517413.184  -4242935.282   2999606.804
10 0 59409  74502.000000  0    4065539.967  -4067330.923   3783735.144
10 0 59409  74622.000000  0    3546369.173  -3812126.267   4501250.254
10 0 59409  74742.000000  0    2970357.986  -3480715.597   5139543.120
10 0 59409  74862.000000  0    2348882.260  -3078017.298   5687411.775
10 0 59409  74982.000000  0    1694007.109  -2610397.033   6135255.601
10 0 59409  75102.000000  0    1018248.267  -2085562.438   6475237.812
10 0 59409  75222.000000  0     334330.597  -1512432.564   6701416.358
10 0 59409  75342.000000  0    -345052.334   -900983.825   6809841.870
10 0 59409  75462.000000  0   -1007473.061   -262074.673   6798621.907
10 0 59409  75582.000000  0   -1640996.437    392747.093   6667951.653
10 0 59409  75702.000000  0   -2234393.874   1051452.508   6420110.747
10 0 59409  75822.000000  0   -2777342.355   1701751.412   6059426.104
10 0 59409  75942.000000  0   -3260605.117   2331321.002   5592201.389
10 0 59409  76062.000000  0   -3676192.050   2928040.205   5026613.680
10 0 59409  76182.000000  0   -4017496.407   3480225.208   4372575.990
10 0 59409  76302.000000  0   -4279404.967   3976861.443   3641568.607
10 0 59409  76422.000000  0   -4458379.591   4407827.965   2846440.624
10 0 59409  76542.000000  0   -4552506.743   4764108.741   2001183.570
10 0 59409  76662.000000  0   -4561513.571   5037985.040   1120681.716
10 0 59409  76782.000000  0   -4486751.401   5223203.300    220444.356
10 0 59409  76902.000000  0   -4331146.982   5315116.051   -683674.519
10 0 59409  77022.000000  0   -4099120.838   5310792.107  -1575766.011
10 0 59409  77142.000000  0   -3796473.295   5209088.253  -2440155.973
10 0 59409  77262.000000  0   -3430244.864   5010687.028  -3261686.808
10 0 59409  77382.000000  0   -3008553.071   4718095.607  -4025987.857
10 0 59409  77502.000000  0   -2540411.221   4335608.201  -4719725.837
10 0 59409  77622.000000  0   -2035534.121   3869234.963  -5330831.933
10 0 59409  77742.000000  0   -1504136.258   3326600.548  -5848703.993
10 0 59409  77862.000000  0    -956725.286   2716812.106  -6264381.819
10 0 59409  77982.000000  0    -403895.300   2050300.265  -6570691.020
10 0 59409  78102.000000  0     143875.023   1338638.432  -6762355.014
10 0 59409  78222.000000  0     676415.976    594342.705  -6836076.810
10 0 59409  78342.000000  0    1184051.515   -169344.458  -6790590.410
10 0 59409  78462.000000  0    1657771.093   -938685.578  -6626679.221
10 0 59409  78582.000000  0    2089385.209  -1699688.803  -6347163.041
10 0 59409  78702.000000  0    2471664.823  -2438355.732  -5956855.134
10 0 59409  78822.000000  0    2798461.968  -3140933.791  -5462489.419
10 0 59409  78942.000000  0    3064811.131  -3794172.381  -4872615.983
10 0 59409  79062.000000  0    3267006.910  -4385574.145  -4197461.938
10 0 59409  79182.000000  0    3402656.759  -4903636.001  -3448764.527
10 0 59409  79302.000000  0    3470710.150  -5338079.352  -2639577.169
10 0 59409  79422.000000  0    3471460.819  -5680063.214  -1784046.524
10 0 59409  79542.000000  0    3406521.742  -5922371.821   -897166.013
10 0 59409  79662.000000  0    3278773.161  -6059574.281      5490.107
10 0 59409  79782.000000  0    3092282.876  -6088149.132    908046.848
10 0 59409  79902.000000  0    2852202.845  -6006572.444   1794615.046
10 0 59409  80022.000000  0    2564643.568  -5815365.072   2649581.721
10 0 59409  80142.000000  0    2236528.242  -5517096.971   3457893.199
10 0 59409  80262.000000  0    1875432.525  -5116351.232   4205325.418
10 0 59409  80382.000000  0    1489413.631  -4619648.773   4878738.161
10 0 59409  80502.000000  0    1086833.713  -4035334.780   5466307.065
10 0 59409  80622.000000  0     676179.884  -3373429.742   5957731.003
10 0 59409  80742.000000  0     265885.772  -2645447.958   6344407.219
10 0 59409  80862.000000  0    -135840.175  -1864191.106   6619574.750
10 0 59409  80982.000000  0    -521176.894  -1043520.020   6778426.201
10 0 59409  81102.000000  0    -882841.557   -198107.269   6818187.872
10 0 59409  81222.000000  0   -1214226.176    656826.103   6738165.332
10 0 59409  81342.000000  0   -1509517.874   1505784.248   6539754.393
10 0 59409  81462.000000  0   -1763800.723   2333276.406   6226418.254
10 0 59409  81582.000000  0   -1973138.232   3124099.436   5803630.903
10 0 59409  81702.000000  0   -2134634.551   3863618.346   5278786.661
10 0 59409  81822.000000  0   -2246474.106   4538040.671   4661078.060
10 0 59409  81942.000000  0   -2307938.884   5134680.343   3961340.495
10 0 59409  82062.000000  0   -2319402.335   5642204.612   3191865.826
10 0 59409  82182.000000  0   -2282299.985   6050857.788   2366186.885
10 0 59409  82302.000000  0   -2199077.273   6352657.028   1498837.892
10 0 59409  82422.000000  0   -2073115.292   6541555.623    605094.047
10 0 59409  82542.000000  0   -1908636.429   6613569.021   -299304.143
10 0 59409  82662.000000  0   -1710592.643   6566860.688  -1198436.517
10 0 59409  82782.000000  0   -1484538.189   6401784.628  -2076495.088
10 0 59409  82902.000000  0   -1236489.828   6120878.651  -2918071.148
10 0 59409  83022.000000  0    -972780.313   5728815.314  -3708428.496
10 0 59409  83142.000000  0    -699908.533   5232313.845  -4433762.106
10 0 59409  83262.000000  0    -424389.751   4640012.651  -5081436.842
10 0 59409  83382.000000  0    -152608.957   3962308.147  -5640201.498
10 0 59409  83502.000000  0     109319.497   3211162.513  -6100376.482
10 0 59409  83622.000000  0     355682.427   2399884.409  -6454010.826
10 0 59409  83742.000000  0     581285.611   1542889.705  -6695007.443
10 0 59409  83862.000000  0     781558.086    655446.235  -6819218.538
10 0 59409  83982.000000  0     952640.566   -246594.857  -6824509.282
10 0 59409  84102.000000  0    1091456.927  -1147077.075  -6710790.080
10 0 59409  84222.000000  0    1195767.753  -2029820.503  -6480016.175
10 0 59409  84342.000000  0    1264205.929  -2878904.127  -6136158.153
10 0 59409  84462.000000  0    1296294.111  -3678948.212  -5685143.140
10 0 59409  84582.000000  0    1292441.874  -4415392.806  -5134762.528
10 0 59409  84702.000000  0    1253924.650  -5074763.729  -4494547.460
10 0 59409  84822.000000  0    1182843.662  -5644924.480  -3775615.681
10 0 59409  84942.000000  0    1082066.618  -6115308.975  -2990487.412
10 0 59409  85062.000000  0     955151.333  -6477128.340  -2152873.699
10 0 59409  85182.000000  0     806253.602  -6723547.861  -1277439.812
10 0 59409  85302.000000  0     640020.325  -6849828.096   -379546.803
10 0 59409  85422.000000  0     461470.899  -6853425.228    525022.845
10 0 59409  85542.000000  0     275869.959  -6734048.929   1420349.312
10 0 59409  85662.000000  0      88594.528  -6493675.702   2290664.516
10 0 59409  85782.000000  0     -95000.985  -6136515.719   3120640.039
10 0 59409  85902.000000  0    -269718.504  -5668932.358   3895665.611
10 0 59409  86022.000000  0    -430645.521  -5099319.936   4602109.738
10 0 59409  86142.000000  0    -573276.062  -4437943.906   5227561.702
10 0 59409  86262.000000  0    -693620.382  -3696745.968   5761048.782
10 0 59409  86382.000000  0    -788301.524  -2889118.497   6193226.538
10 0 59410    102.000000  0    -854636.314  -2029653.521   6516535.723
10 0 59410    222.000000  0    -890699.381  -1133875.371   6725326.874
10 0 59410    342.000000  0    -895369.779   -217958.602   6815954.446
10 0 59410    462.000000  0    -868359.455    701565.016   6786836.898
10 0 59410    582.000000  0    -810221.558   1608104.569   6638482.613
10 0 59410    702.000000  0    -722338.976   2485308.770   6373481.414
10 0 59410    822.000000  0    -606893.919   3317360.618   5996462.222
10 0 59410    942.000000  0    -466819.159   4089264.243   5514017.165
10 0 59410   1062.000000  0    -305731.302   4787118.458   4934591.751
10 0 59410   1182.000000  0    -127847.277   5398373.883   4268343.919
10 0 59410   1302.000000  0      62114.817   5912066.882   3526968.650
10 0 59410   1422.000000  0     259047.067   6319023.767   2723498.203
10 0 59410   1542.000000  0     457574.461   6612040.577   1872072.841
10 0 59410   1662.000000  0     652186.861   6786017.957    987684.958
10 0 59410   1782.000000  0     837374.935   6838055.244     85909.072
10 0 59410   1902.000000  0    1007767.939   6767501.281   -817380.534
10 0 59410   2022.000000  0    1158268.299   6575959.368  -1706297.996
10 0 59410   2142.000000  0    1284179.916   6267247.768  -2565232.618
10 0 59410   2262.000000  0    1381327.655   5847316.643  -3379129.129
10 0 59410   2382.000000  0    1446165.125   5324123.224  -4133755.098
10 0 59410   2502.000000  0    1475868.261   4707468.995  -4815949.847
10 0 59410   2622.000000  0    1468412.268   4008803.636  -5413849.396
10 0 59410   2742.000000  0    1422630.396   3241002.817  -5917084.785
99
